{
  "type": "FeatureCollection",
  "generator": "overpass-ide",
  "copyright": "The data included in this document is from www.openstreetmap.org. The data is made available under ODbL.",
  "timestamp": "2019-01-19T13:08:02Z",
  "features": [
    {
      "type": "Feature",
      "properties": {
        "@id": "node/253616592",
        "name": "Kauf Markt",
        "shop": "convenience",
        "wheelchair": "limited"
      },
      "geometry": {
        "type": "Point",
        "coordinates": [
          13.4626981,
          52.5110467
        ]
      },
      "id": "node/253616592"
    },
    {
      "type": "Feature",
      "properties": {
        "@id": "node/282406641",
        "addr:city": "Berlin",
        "addr:country": "DE",
        "addr:housenumber": "14",
        "addr:postcode": "10245",
        "addr:street": "Gärtnerstraße",
        "addr:suburb": "Friedrichshain",
        "name": "Boxi Kiosk",
        "shop": "convenience",
        "wheelchair": "no"
      },
      "geometry": {
        "type": "Point",
        "coordinates": [
          13.4611651,
          52.5108993
        ]
      },
      "id": "node/282406641"
    },
    {
      "type": "Feature",
      "properties": {
        "@id": "node/361481997",
        "addr:city": "Berlin",
        "addr:country": "DE",
        "addr:housenumber": "7",
        "addr:postcode": "10245",
        "addr:street": "Lenbachstraße",
        "addr:suburb": "Friedrichshain",
        "contact:phone": "+493097882028",
        "contact:website": "http://www.perlerei.de",
        "name": "Perlerei",
        "shop": "convenience",
        "wheelchair": "no"
      },
      "geometry": {
        "type": "Point",
        "coordinates": [
          13.4671007,
          52.5059682
        ]
      },
      "id": "node/361481997"
    },
    {
      "type": "Feature",
      "properties": {
        "@id": "node/431655696",
        "addr:city": "Berlin",
        "addr:country": "DE",
        "addr:housenumber": "12",
        "addr:postcode": "10245",
        "addr:street": "Seumestraße",
        "addr:suburb": "Friedrichshain",
        "name": "LPG",
        "opening_hours": "Mo-Fr 09:00-20:00; Sa 09:00-18:00",
        "shop": "convenience",
        "wheelchair": "yes"
      },
      "geometry": {
        "type": "Point",
        "coordinates": [
          13.4622583,
          52.5097543
        ]
      },
      "id": "node/431655696"
    },
    {
      "type": "Feature",
      "properties": {
        "@id": "node/573381061",
        "addr:city": "Berlin",
        "addr:country": "DE",
        "addr:housenumber": "20",
        "addr:postcode": "10247",
        "addr:street": "Scharnweberstraße",
        "addr:suburb": "Friedrichshain",
        "name": "Quang Loi",
        "shop": "convenience",
        "wheelchair": "yes"
      },
      "geometry": {
        "type": "Point",
        "coordinates": [
          13.4673128,
          52.5128191
        ]
      },
      "id": "node/573381061"
    },
    {
      "type": "Feature",
      "properties": {
        "@id": "node/576051172",
        "addr:city": "Berlin",
        "addr:country": "DE",
        "addr:postcode": "10247",
        "addr:street": "Kinzigstraße",
        "addr:suburb": "Friedrichshain",
        "name": "Lebensmittel",
        "shop": "convenience",
        "wheelchair": "no"
      },
      "geometry": {
        "type": "Point",
        "coordinates": [
          13.4658832,
          52.5129377
        ]
      },
      "id": "node/576051172"
    },
    {
      "type": "Feature",
      "properties": {
        "@id": "node/576051178",
        "addr:city": "Berlin",
        "addr:country": "DE",
        "addr:housenumber": "60",
        "addr:postcode": "10247",
        "addr:street": "Frankfurter Allee",
        "addr:suburb": "Friedrichshain",
        "name": "Euro Shop",
        "opening_hours": "24/7",
        "shop": "convenience",
        "wheelchair": "no"
      },
      "geometry": {
        "type": "Point",
        "coordinates": [
          13.4659449,
          52.5143578
        ]
      },
      "id": "node/576051178"
    },
    {
      "type": "Feature",
      "properties": {
        "@id": "node/586663202",
        "shop": "convenience"
      },
      "geometry": {
        "type": "Point",
        "coordinates": [
          13.4713536,
          52.5132812
        ]
      },
      "id": "node/586663202"
    },
    {
      "type": "Feature",
      "properties": {
        "@id": "node/838429741",
        "name": "Käptn Kiez",
        "opening_hours": "Mo 09:00-24:00; Tu-Th 00:00-02:00,09:00-24:00; Fr 00:00-02:00,10:00-24:00; Sa 00:00-04:00,10:00-24:00; Su 00:00-04:00",
        "shop": "convenience",
        "wheelchair": "limited"
      },
      "geometry": {
        "type": "Point",
        "coordinates": [
          13.4655484,
          52.506133
        ]
      },
      "id": "node/838429741"
    },
    {
      "type": "Feature",
      "properties": {
        "@id": "node/838429759",
        "name": "Kiosk 24",
        "shop": "convenience",
        "type": "kiosk",
        "wheelchair": "yes"
      },
      "geometry": {
        "type": "Point",
        "coordinates": [
          13.4674992,
          52.5049592
        ]
      },
      "id": "node/838429759"
    },
    {
      "type": "Feature",
      "properties": {
        "@id": "node/838429794",
        "addr:city": "Berlin",
        "addr:country": "DE",
        "addr:housenumber": "2",
        "addr:postcode": "10245",
        "addr:street": "Sonntagstraße",
        "addr:suburb": "Friedrichshain",
        "name": "Die Späti Brüder",
        "shop": "convenience",
        "type": "kiosk",
        "wheelchair": "no"
      },
      "geometry": {
        "type": "Point",
        "coordinates": [
          13.4678618,
          52.5046457
        ]
      },
      "id": "node/838429794"
    },
    {
      "type": "Feature",
      "properties": {
        "@id": "node/863962594",
        "name": "Kiez Shop",
        "post_box": "yes",
        "shop": "convenience",
        "wheelchair": "limited"
      },
      "geometry": {
        "type": "Point",
        "coordinates": [
          13.4703076,
          52.5058829
        ]
      },
      "id": "node/863962594"
    },
    {
      "type": "Feature",
      "properties": {
        "@id": "node/863962795",
        "addr:city": "Berlin",
        "addr:street": "Boxhagener Straße",
        "name": "Boxi Spätshop",
        "shop": "convenience",
        "wheelchair": "no"
      },
      "geometry": {
        "type": "Point",
        "coordinates": [
          13.4685989,
          52.5071539
        ]
      },
      "id": "node/863962795"
    },
    {
      "type": "Feature",
      "properties": {
        "@id": "node/1140901464",
        "addr:city": "Berlin",
        "addr:country": "DE",
        "addr:postcode": "10243",
        "addr:street": "Warschauer Straße",
        "name": "Eastside Kiosk",
        "shop": "convenience",
        "wheelchair": "no"
      },
      "geometry": {
        "type": "Point",
        "coordinates": [
          13.4530374,
          52.5125059
        ]
      },
      "id": "node/1140901464"
    },
    {
      "type": "Feature",
      "properties": {
        "@id": "node/1140906805",
        "addr:city": "Berlin",
        "addr:country": "DE",
        "addr:housenumber": "69",
        "addr:postcode": "10245",
        "addr:street": "Neue Bahnhofstraße",
        "addr:suburb": "Friedrichshain",
        "name": "Tele Internet 69",
        "shop": "convenience",
        "wheelchair": "no"
      },
      "geometry": {
        "type": "Point",
        "coordinates": [
          13.4698461,
          52.506568
        ]
      },
      "id": "node/1140906805"
    },
    {
      "type": "Feature",
      "properties": {
        "@id": "node/1140914372",
        "name": "City Kiosk",
        "shop": "convenience",
        "wheelchair": "no"
      },
      "geometry": {
        "type": "Point",
        "coordinates": [
          13.462105,
          52.5100286
        ]
      },
      "id": "node/1140914372"
    },
    {
      "type": "Feature",
      "properties": {
        "@id": "node/1181625810",
        "addr:city": "Berlin",
        "addr:country": "DE",
        "addr:housenumber": "18",
        "addr:postcode": "10245",
        "addr:street": "Simon-Dach-Straße",
        "addr:suburb": "Friedrichshain",
        "atm": "yes",
        "entrance": "yes",
        "name": "Esperanto",
        "shop": "convenience",
        "wheelchair": "no"
      },
      "geometry": {
        "type": "Point",
        "coordinates": [
          13.4555933,
          52.5091058
        ]
      },
      "id": "node/1181625810"
    },
    {
      "type": "Feature",
      "properties": {
        "@id": "node/1311839516",
        "addr:city": "Berlin",
        "addr:country": "DE",
        "addr:housenumber": "38",
        "addr:postcode": "10247",
        "addr:street": "Voigtstraße",
        "addr:suburb": "Friedrichshain",
        "contact:phone": "+493042084910",
        "contact:website": "https://www.biocompany.de",
        "name": "Bio Company",
        "opening_hours": "Mo-Sa 08:00-21:00",
        "organic": "only",
        "shop": "convenience",
        "wheelchair": "yes"
      },
      "geometry": {
        "type": "Point",
        "coordinates": [
          13.4679239,
          52.5160394
        ]
      },
      "id": "node/1311839516"
    },
    {
      "type": "Feature",
      "properties": {
        "@id": "node/1374234428",
        "shop": "convenience"
      },
      "geometry": {
        "type": "Point",
        "coordinates": [
          13.4610655,
          52.511525
        ]
      },
      "id": "node/1374234428"
    },
    {
      "type": "Feature",
      "properties": {
        "@id": "node/1455764529",
        "name": "MultiMarkt3",
        "shop": "convenience",
        "wheelchair": "no"
      },
      "geometry": {
        "type": "Point",
        "coordinates": [
          13.4660361,
          52.5085725
        ]
      },
      "id": "node/1455764529"
    },
    {
      "type": "Feature",
      "properties": {
        "@id": "node/1614528079",
        "name": "Olive",
        "opening_hours": "Mo 05:00-24:00; Tu-Th 00:00-01:00,05:00-24:00; Fr-Su 00:00-24:00",
        "shop": "convenience",
        "wheelchair": "yes"
      },
      "geometry": {
        "type": "Point",
        "coordinates": [
          13.4618701,
          52.517851
        ]
      },
      "id": "node/1614528079"
    },
    {
      "type": "Feature",
      "properties": {
        "@id": "node/1633204905",
        "addr:city": "Berlin",
        "addr:country": "DE",
        "addr:housenumber": "104",
        "addr:street": "Frankfurter Allee",
        "name": "HOA MAI Asia Supermarket",
        "opening_hours": "Mo-Sa 09:00-20:00",
        "origin": "asian",
        "phone": "+493027573632",
        "shop": "convenience",
        "source": "survey",
        "wheelchair": "limited"
      },
      "geometry": {
        "type": "Point",
        "coordinates": [
          13.4740244,
          52.513557
        ]
      },
      "id": "node/1633204905"
    },
    {
      "type": "Feature",
      "properties": {
        "@id": "node/1758891018",
        "name": "MEY",
        "shop": "convenience",
        "wheelchair": "limited"
      },
      "geometry": {
        "type": "Point",
        "coordinates": [
          13.4697138,
          52.5122969
        ]
      },
      "id": "node/1758891018"
    },
    {
      "type": "Feature",
      "properties": {
        "@id": "node/1862169692",
        "name": "Kiezladen",
        "shop": "convenience"
      },
      "geometry": {
        "type": "Point",
        "coordinates": [
          13.459522,
          52.5102529
        ]
      },
      "id": "node/1862169692"
    },
    {
      "type": "Feature",
      "properties": {
        "@id": "node/1909902419",
        "shop": "convenience",
        "toilets:wheelchair": "no",
        "wheelchair": "no"
      },
      "geometry": {
        "type": "Point",
        "coordinates": [
          13.4688049,
          52.5177636
        ]
      },
      "id": "node/1909902419"
    },
    {
      "type": "Feature",
      "properties": {
        "@id": "node/1981140798",
        "name": "Lebensmittel",
        "opening_hours": "Mo-Fr 07:30-20:00, Sa 07:30-10:00",
        "shop": "convenience",
        "wheelchair": "limited"
      },
      "geometry": {
        "type": "Point",
        "coordinates": [
          13.4824821,
          52.5159479
        ]
      },
      "id": "node/1981140798"
    },
    {
      "type": "Feature",
      "properties": {
        "@id": "node/2278426774",
        "addr:city": "Berlin",
        "addr:country": "DE",
        "addr:postcode": "10247",
        "addr:street": "Scharnweberstraße",
        "addr:suburb": "Friedrichshain",
        "name": "Späti \"Lebensmittel & Blumen\"",
        "shop": "convenience"
      },
      "geometry": {
        "type": "Point",
        "coordinates": [
          13.4721172,
          52.5122949
        ]
      },
      "id": "node/2278426774"
    },
    {
      "type": "Feature",
      "properties": {
        "@id": "node/2278429402",
        "addr:city": "Berlin",
        "addr:country": "DE",
        "addr:housenumber": "12",
        "addr:postcode": "10247",
        "addr:street": "Scharnweberstraße",
        "addr:suburb": "Friedrichshain",
        "name": "Späti \"Getränke & Internet\"",
        "shop": "convenience"
      },
      "geometry": {
        "type": "Point",
        "coordinates": [
          13.4719053,
          52.5123235
        ]
      },
      "id": "node/2278429402"
    },
    {
      "type": "Feature",
      "properties": {
        "@id": "node/2335083233",
        "addr:city": "Berlin",
        "addr:country": "DE",
        "addr:housenumber": "35",
        "addr:postcode": "10245",
        "addr:street": "Grünberger Straße",
        "addr:suburb": "Friedrichshain",
        "name": "Day & Night Shop",
        "shop": "convenience",
        "wheelchair": "no"
      },
      "geometry": {
        "type": "Point",
        "coordinates": [
          13.4540704,
          52.5123328
        ]
      },
      "id": "node/2335083233"
    },
    {
      "type": "Feature",
      "properties": {
        "@id": "node/2335091426",
        "addr:city": "Berlin",
        "addr:country": "DE",
        "addr:housenumber": "49",
        "addr:postcode": "10245",
        "addr:street": "Grünberger Straße",
        "addr:suburb": "Friedrichshain",
        "name": "Mini Markt",
        "shop": "convenience",
        "wheelchair": "no"
      },
      "geometry": {
        "type": "Point",
        "coordinates": [
          13.4557455,
          52.5120577
        ]
      },
      "id": "node/2335091426"
    },
    {
      "type": "Feature",
      "properties": {
        "@id": "node/2429480918",
        "addr:city": "Berlin",
        "addr:country": "DE",
        "addr:housenumber": "19",
        "addr:postcode": "10247",
        "addr:street": "Jungstraße",
        "addr:suburb": "Friedrichshain",
        "contact:mobile": "+49 174 5787044",
        "contact:website": "http://www.jungshop-oriental.de",
        "description": "Spätverkauf, Schwerpunkt: indisch",
        "name": "Jung Shop",
        "shop": "convenience",
        "source": "Dakota 20",
        "wheelchair": "yes"
      },
      "geometry": {
        "type": "Point",
        "coordinates": [
          13.4654553,
          52.5112438
        ]
      },
      "id": "node/2429480918"
    },
    {
      "type": "Feature",
      "properties": {
        "@id": "node/2429501927",
        "addr:city": "Berlin",
        "addr:country": "DE",
        "addr:housenumber": "20",
        "addr:postcode": "10245",
        "addr:street": "Gabriel-Max-Straße",
        "addr:suburb": "Friedrichshain",
        "contact:mobile": "+49 170 3066913",
        "description": "Spätverkauf und Postagentur",
        "name": "Meet Kiosk Postagentur",
        "shop": "convenience",
        "source": "Dakota 20",
        "wheelchair": "yes"
      },
      "geometry": {
        "type": "Point",
        "coordinates": [
          13.4579456,
          52.5099712
        ]
      },
      "id": "node/2429501927"
    },
    {
      "type": "Feature",
      "properties": {
        "@id": "node/2496841605",
        "addr:city": "Berlin",
        "addr:country": "DE",
        "addr:housenumber": "4",
        "addr:postcode": "10245",
        "addr:street": "Gabriel-Max-Straße",
        "addr:suburb": "Friedrichshain",
        "amenity": "internet_cafe",
        "atm": "yes",
        "contact:phone": "+49 30 66766852",
        "contact:website": "http://www.aquariumlounge.de/",
        "name": "Quick Store Aquarium Lounge",
        "note": "Kiosk und Internetcafé",
        "opening_hours": "00:00-01:00,08:30-24:00",
        "shop": "convenience",
        "source": "Dakota 20"
      },
      "geometry": {
        "type": "Point",
        "coordinates": [
          13.4583749,
          52.5101364
        ]
      },
      "id": "node/2496841605"
    },
    {
      "type": "Feature",
      "properties": {
        "@id": "node/2663080756",
        "addr:housenumber": "28",
        "addr:street": "Kaskelstraße",
        "name": "Kiez Einkaufseck",
        "opening_hours": "Mo-Sa 08:30-22:00",
        "shop": "convenience",
        "wheelchair": "no"
      },
      "geometry": {
        "type": "Point",
        "coordinates": [
          13.4791072,
          52.5041947
        ]
      },
      "id": "node/2663080756"
    },
    {
      "type": "Feature",
      "properties": {
        "@id": "node/2690026209",
        "name": "Best of Späti",
        "shop": "convenience",
        "wheelchair": "no"
      },
      "geometry": {
        "type": "Point",
        "coordinates": [
          13.4703549,
          52.5064939
        ]
      },
      "id": "node/2690026209"
    },
    {
      "type": "Feature",
      "properties": {
        "@id": "node/2776929959",
        "addr:city": "Berlin",
        "addr:country": "DE",
        "addr:housenumber": "88",
        "addr:postcode": "10245",
        "addr:street": "Boxhagener Straße",
        "addr:suburb": "Friedrichshain",
        "name": "Eyzi Getränke",
        "shop": "convenience"
      },
      "geometry": {
        "type": "Point",
        "coordinates": [
          13.4649236,
          52.5097911
        ]
      },
      "id": "node/2776929959"
    },
    {
      "type": "Feature",
      "properties": {
        "@id": "node/2862295897",
        "addr:city": "Berlin",
        "addr:country": "DE",
        "addr:housenumber": "69",
        "addr:postcode": "10249",
        "addr:street": "Petersburger Straße",
        "addr:suburb": "Friedrichshain",
        "name": "Djangos Place",
        "shop": "convenience"
      },
      "geometry": {
        "type": "Point",
        "coordinates": [
          13.4525953,
          52.5198671
        ]
      },
      "id": "node/2862295897"
    },
    {
      "type": "Feature",
      "properties": {
        "@id": "node/2935555501",
        "name": "MultiMarkt",
        "shop": "convenience",
        "wheelchair": "yes"
      },
      "geometry": {
        "type": "Point",
        "coordinates": [
          13.4622046,
          52.5085877
        ]
      },
      "id": "node/2935555501"
    },
    {
      "type": "Feature",
      "properties": {
        "@id": "node/3072013563",
        "name": "Phillip's Lebensmittel",
        "shop": "convenience"
      },
      "geometry": {
        "type": "Point",
        "coordinates": [
          13.4538,
          52.5177191
        ]
      },
      "id": "node/3072013563"
    },
    {
      "type": "Feature",
      "properties": {
        "@id": "node/3231998402",
        "name": "Rigaer Getränke",
        "opening_hours": "Mo 10:00-24:00; Tu-Fr 00:00-01:00,10:00-24:00; Sa 00:00-02:00,10:00-24:00; Su 00:00-02:00",
        "shop": "convenience"
      },
      "geometry": {
        "type": "Point",
        "coordinates": [
          13.4547027,
          52.5183507
        ]
      },
      "id": "node/3231998402"
    },
    {
      "type": "Feature",
      "properties": {
        "@id": "node/3391048641",
        "name": "Kiosk Spätkauf",
        "shop": "convenience",
        "wheelchair": "no"
      },
      "geometry": {
        "type": "Point",
        "coordinates": [
          13.4781719,
          52.5153365
        ]
      },
      "id": "node/3391048641"
    },
    {
      "type": "Feature",
      "properties": {
        "@id": "node/3830639606",
        "addr:city": "Berlin",
        "addr:country": "DE",
        "addr:housenumber": "149",
        "addr:postcode": "10365",
        "addr:street": "Frankfurter Allee",
        "addr:suburb": "Lichtenberg",
        "contact:email": "info@gastro-meurer.de",
        "contact:fax": "+49 30 92093605",
        "contact:phone": "+49 30 92093600",
        "contact:website": "http://www.gastro-meurer.de",
        "name": "GASTRO Agentur Meurer",
        "opening_hours": "Mo-Th 10:00-17:00, Fr 10:00-16:00",
        "operator": "Gastro Agentur Hans & Thomas Meurer GbR",
        "shop": "convenience",
        "wheelchair": "yes"
      },
      "geometry": {
        "type": "Point",
        "coordinates": [
          13.481254,
          52.5135785
        ]
      },
      "id": "node/3830639606"
    },
    {
      "type": "Feature",
      "properties": {
        "@id": "node/3896292628",
        "addr:city": "Berlin",
        "addr:country": "DE",
        "addr:housenumber": "32",
        "addr:postcode": "10245",
        "addr:street": "Grünberger Straße",
        "name": "Day & Night Shop",
        "shop": "convenience"
      },
      "geometry": {
        "type": "Point",
        "coordinates": [
          13.4520316,
          52.5124095
        ]
      },
      "id": "node/3896292628"
    },
    {
      "type": "Feature",
      "properties": {
        "@id": "node/3933415411",
        "name": "B&P Spezialmarkt",
        "shop": "convenience",
        "toilets:wheelchair": "no",
        "wheelchair": "no",
        "wheelchair:description": "Eine Stufe 20cm."
      },
      "geometry": {
        "type": "Point",
        "coordinates": [
          13.4615435,
          52.5123866
        ]
      },
      "id": "node/3933415411"
    },
    {
      "type": "Feature",
      "properties": {
        "@id": "node/3933417011",
        "name": "Späti Reisebedarf & Souvenirs",
        "shop": "convenience",
        "toilets:wheelchair": "no",
        "wheelchair": "no"
      },
      "geometry": {
        "type": "Point",
        "coordinates": [
          13.4617026,
          52.5126319
        ]
      },
      "id": "node/3933417011"
    },
    {
      "type": "Feature",
      "properties": {
        "@id": "node/4066840139",
        "name": "Spätkauf OstX",
        "shop": "convenience",
        "wheelchair": "yes"
      },
      "geometry": {
        "type": "Point",
        "coordinates": [
          13.4672762,
          52.5051359
        ]
      },
      "id": "node/4066840139"
    },
    {
      "type": "Feature",
      "properties": {
        "@id": "node/4116116392",
        "addr:housenumber": "78",
        "addr:street": "Warschauer Straße",
        "name": "Kiosk Diva",
        "shop": "convenience",
        "toilets:wheelchair": "no",
        "wheelchair": "no"
      },
      "geometry": {
        "type": "Point",
        "coordinates": [
          13.4533273,
          52.513245
        ]
      },
      "id": "node/4116116392"
    },
    {
      "type": "Feature",
      "properties": {
        "@id": "node/4153062562",
        "name": "Olive",
        "opening_hours": "24/7",
        "shop": "convenience"
      },
      "geometry": {
        "type": "Point",
        "coordinates": [
          13.4649311,
          52.5181126
        ]
      },
      "id": "node/4153062562"
    },
    {
      "type": "Feature",
      "properties": {
        "@id": "node/4153062563",
        "name": "SoSo",
        "opening_hours": "24/7",
        "shop": "convenience",
        "wheelchair": "no"
      },
      "geometry": {
        "type": "Point",
        "coordinates": [
          13.465326,
          52.517248
        ]
      },
      "id": "node/4153062563"
    },
    {
      "type": "Feature",
      "properties": {
        "@id": "node/4157153871",
        "name": "Der Laden",
        "shop": "convenience",
        "wheelchair": "no"
      },
      "geometry": {
        "type": "Point",
        "coordinates": [
          13.4654159,
          52.5183818
        ]
      },
      "id": "node/4157153871"
    },
    {
      "type": "Feature",
      "properties": {
        "@id": "node/4304290491",
        "addr:city": "Berlin",
        "addr:housenumber": "15a",
        "addr:street": "Gabriel-Max-Straße",
        "name": "Maxi Spätkauf",
        "opening_hours": "Mo 08:00-24:00; Tu-Fr 00:00-05:00,08:00-24:00; Sa,Su 00:00-24:00",
        "shop": "convenience",
        "wheelchair": "no"
      },
      "geometry": {
        "type": "Point",
        "coordinates": [
          13.458509,
          52.5111832
        ]
      },
      "id": "node/4304290491"
    },
    {
      "type": "Feature",
      "properties": {
        "@id": "node/4533857105",
        "addr:city": "Berlin",
        "addr:housenumber": "105",
        "addr:postcode": "10245",
        "addr:street": "Boxhagener Straße",
        "name": "Spätkauf",
        "shop": "convenience"
      },
      "geometry": {
        "type": "Point",
        "coordinates": [
          13.4588527,
          52.5127058
        ]
      },
      "id": "node/4533857105"
    },
    {
      "type": "Feature",
      "properties": {
        "@id": "node/4534097102",
        "name": "Presse & Shop",
        "shop": "convenience"
      },
      "geometry": {
        "type": "Point",
        "coordinates": [
          13.4670986,
          52.5074247
        ]
      },
      "id": "node/4534097102"
    },
    {
      "type": "Feature",
      "properties": {
        "@id": "node/4798989739",
        "addr:city": "Berlin",
        "addr:housenumber": "24",
        "addr:postcode": "10245",
        "addr:street": "Boxhagener Straße",
        "email": "berlin@getraenkefeinkost.de",
        "name": "Getränkefeinkost",
        "opening_hours": "Mo-Fr 13:00-20:00; Sa 11:00-20:00",
        "phone": "+493025933800",
        "shop": "convenience",
        "website": "https://www.getraenkefeinkost.de/filiale/berlin/",
        "wheelchair": "no"
      },
      "geometry": {
        "type": "Point",
        "coordinates": [
          13.4568722,
          52.5129283
        ]
      },
      "id": "node/4798989739"
    },
    {
      "type": "Feature",
      "properties": {
        "@id": "node/4881993956",
        "addr:city": "Berlin",
        "addr:housenumber": "49",
        "addr:postcode": "10245",
        "addr:street": "Wühlischstraße",
        "name": "Gula Sor",
        "shop": "convenience"
      },
      "geometry": {
        "type": "Point",
        "coordinates": [
          13.4627232,
          52.5081984
        ]
      },
      "id": "node/4881993956"
    },
    {
      "type": "Feature",
      "properties": {
        "@id": "node/4881993961",
        "addr:city": "Berlin",
        "addr:housenumber": "14",
        "addr:postcode": "10245",
        "addr:street": "Wühlischstraße",
        "shop": "convenience",
        "wheelchair": "no"
      },
      "geometry": {
        "type": "Point",
        "coordinates": [
          13.4630021,
          52.5083967
        ]
      },
      "id": "node/4881993961"
    },
    {
      "type": "Feature",
      "properties": {
        "@id": "node/4889196428",
        "name": "Spätkauf",
        "shop": "convenience"
      },
      "geometry": {
        "type": "Point",
        "coordinates": [
          13.4666524,
          52.5098773
        ]
      },
      "id": "node/4889196428"
    },
    {
      "type": "Feature",
      "properties": {
        "@id": "node/4889866554",
        "name": "Spätkauf",
        "shop": "convenience"
      },
      "geometry": {
        "type": "Point",
        "coordinates": [
          13.4821132,
          52.5131957
        ]
      },
      "id": "node/4889866554"
    },
    {
      "type": "Feature",
      "properties": {
        "@id": "node/4902369112",
        "addr:city": "Berlin",
        "addr:country": "DE",
        "addr:postcode": "10247",
        "addr:street": "Proskauer Straße",
        "addr:suburb": "Friedrichshain",
        "name": "Spätkauf",
        "opening_hours": "Mo-Su 08:00-03:00",
        "shop": "convenience",
        "wheelchair": "limited"
      },
      "geometry": {
        "type": "Point",
        "coordinates": [
          13.4612204,
          52.5167241
        ]
      },
      "id": "node/4902369112"
    },
    {
      "type": "Feature",
      "properties": {
        "@id": "node/4907995176",
        "addr:city": "Berlin",
        "addr:housenumber": "55",
        "addr:postcode": "10245",
        "addr:street": "Grünberger Straße",
        "name": "md Mein Markt",
        "opening_hours": "Mo-Th 07:00-21:00; Fr,Sa 07:00-24:00",
        "operator": "Mert Dobak",
        "shop": "convenience"
      },
      "geometry": {
        "type": "Point",
        "coordinates": [
          13.4563393,
          52.5119567
        ]
      },
      "id": "node/4907995176"
    },
    {
      "type": "Feature",
      "properties": {
        "@id": "node/4908049915",
        "addr:city": "Berlin",
        "addr:housenumber": "64",
        "addr:postcode": "10245",
        "addr:street": "Grünberger Straße",
        "name": "Spätkauf 24h",
        "shop": "convenience"
      },
      "geometry": {
        "type": "Point",
        "coordinates": [
          13.4578312,
          52.5114605
        ]
      },
      "id": "node/4908049915"
    },
    {
      "type": "Feature",
      "properties": {
        "@id": "node/4920773047",
        "addr:city": "Berlin",
        "addr:housenumber": "33",
        "addr:postcode": "10245",
        "addr:street": "Gärtnerstraße",
        "name": "I Love Späti",
        "shop": "convenience"
      },
      "geometry": {
        "type": "Point",
        "coordinates": [
          13.4595583,
          52.508469
        ]
      },
      "id": "node/4920773047"
    },
    {
      "type": "Feature",
      "properties": {
        "@id": "node/4931219961",
        "addr:housenumber": "26",
        "addr:postcode": "10247",
        "addr:street": "Niederbarnimstraße",
        "name": "Spiff 24",
        "shop": "convenience",
        "surveillance": "yes",
        "wheelchair": "yes"
      },
      "geometry": {
        "type": "Point",
        "coordinates": [
          13.4600352,
          52.5147244
        ]
      },
      "id": "node/4931219961"
    },
    {
      "type": "Feature",
      "properties": {
        "@id": "node/5198695392",
        "name": "ServiceStore DB",
        "opening_hours": "Mo-Fr 05:00-22:00, Sa 07:00-22:00, Su,PH 07:00-20:00",
        "shop": "convenience",
        "wheelchair": "yes"
      },
      "geometry": {
        "type": "Point",
        "coordinates": [
          13.474543,
          52.5145947
        ]
      },
      "id": "node/5198695392"
    },
    {
      "type": "Feature",
      "properties": {
        "@id": "node/5461032521",
        "name": "Kräuter Kühne",
        "opening_hours": "Mo-Fr 08:45-10:00,11:00-13:00,14:00-18:00; Sa 08:45-14:00",
        "shop": "convenience"
      },
      "geometry": {
        "type": "Point",
        "coordinates": [
          13.4632331,
          52.5150724
        ]
      },
      "id": "node/5461032521"
    },
    {
      "type": "Feature",
      "properties": {
        "@id": "node/5503456919",
        "addr:city": "Berlin",
        "addr:country": "DE",
        "addr:postcode": "10247",
        "addr:street": "Rigaer Straße",
        "addr:suburb": "Friedrichshain",
        "name": "Trinkbar Spätkauf",
        "shop": "convenience"
      },
      "geometry": {
        "type": "Point",
        "coordinates": [
          13.4623235,
          52.5167677
        ]
      },
      "id": "node/5503456919"
    }
  ]
}